     3.04           N: GNSS NAV DATA    M: MIXED            RINEX VERSION / TYPE
ssrcrin-15.6.1x                         20250101 141500 UTC PGM / RUN BY / DATE 
    18                                                      LEAP SECONDS        
                                                            END OF HEADER       
E34 2025 01 01 14 10 00-1.551095629111E-04-2.188471626141E-12 0.000000000000E+00
     9.000000000000E+00 1.642187500000E+02 2.535819912792E-09 2.625207400254E+00
     7.765367627144E-06 1.913697924465E-04 2.589076757431E-07 5.440605024338E+03
     3.102000000000E+05-1.303851604462E-08-1.777766369094E+00 9.126961231232E-08
     9.995119901663E-01 3.534062500000E+02-2.151508285379E+00-5.576660861738E-09
     3.085842823454E-10 2.580000000000E+02 2.347000000000E+03
     3.120000000000E+00 0.000000000000E+00 6.984919309616E-10 0.000000000000E+00
     3.109400000000E+05
E29 2025 01 01 14 10 00-5.848362343386E-05-3.183231456205E-12 0.000000000000E+00
     9.000000000000E+00-1.835625000000E+02 2.811545683592E-09-3.632677871043E-01
    -8.363276720047E-06 3.143786452711E-04 1.199170947075E-05 5.440618267059E+03
     3.102000000000E+05 0.000000000000E+00 3.156927753798E-01 2.793967723846E-08
     9.569348098444E-01 8.068750000000E+01 2.648407006154E+00-5.281291415557E-09
     3.428714248282E-10 2.580000000000E+02 2.347000000000E+03
     3.120000000000E+00 0.000000000000E+00-5.355104804039E-09 0.000000000000E+00
     3.109400000000E+05
E36 2025 01 01 14 10 00-3.330273320898E-04-5.272227099340E-12 0.000000000000E+00
     9.000000000000E+00 1.617187500000E+02 2.502961401246E-09 2.262792816232E+00
     7.633119821548E-06 3.678702050820E-04 1.093372702599E-06 5.440612422943E+03
     3.102000000000E+05-2.235174179077E-08-1.775900898384E+00-2.048909664154E-08
     9.996858418880E-01 3.372500000000E+02-1.004900379734E+00-5.596304537118E-09
     2.578678840896E-10 2.580000000000E+02 2.347000000000E+03
     3.120000000000E+00 0.000000000000E+00 2.095475792885E-09 0.000000000000E+00
     3.109400000000E+05
E19 2025 01 01 14 10 00 1.170644711237E-03 5.609024356090E-11 0.000000000000E+00
     9.000000000000E+00-1.781562500000E+02 2.608680090568E-09-2.573770663696E+00
    -8.247792720795E-06 1.478173071519E-04 1.178681850433E-05 5.440635393143E+03
     3.102000000000E+05 1.117587089539E-08 3.191183282621E-01 1.676380634308E-08
     9.691162873090E-01 8.909375000000E+01-2.121283095864E+00-5.180930092248E-09
     3.360854278785E-10 5.170000000000E+02 2.347000000000E+03
     3.120000000000E+00 0.000000000000E+00-6.752088665962E-09-6.053596735001E-09
     3.109450000000E+05
S21 2025 01 01 14 22 24 0.000000000000E+00 0.000000000000E+00 3.109580000000E+05
     4.200468400000E+04 0.000000000000E+00 0.000000000000E+00 6.300000000000E+01
    -3.674932960000E+03 0.000000000000E+00 0.000000000000E+00 3.276700000000E+04
     0.000000000000E+00 0.000000000000E+00 0.000000000000E+00 1.640000000000E+02
S36 2025 01 01 14 22 40 0.000000000000E+00 0.000000000000E+00 3.109690000000E+05
     4.200368800000E+04 0.000000000000E+00 0.000000000000E+00 6.300000000000E+01
     3.674846960000E+03 0.000000000000E+00 0.000000000000E+00 3.276700000000E+04
     0.000000000000E+00 0.000000000000E+00 0.000000000000E+00 2.350000000000E+02
S23 2025 01 01 14 22 56 0.000000000000E+00 0.000000000000E+00 3.109770000000E+05
     3.866796400000E+04 0.000000000000E+00 0.000000000000E+00 6.300000000000E+01
     1.681330800000E+04 0.000000000000E+00 0.000000000000E+00 3.276700000000E+04
     0.000000000000E+00 0.000000000000E+00 0.000000000000E+00 1.420000000000E+02
E02 2025 01 01 14 10 00 1.867536921054E-04 2.870592652471E-12 0.000000000000E+00
     9.000000000000E+00-2.434375000000E+01 3.398712998610E-09 1.872611008394E+00
    -1.311302185059E-06 5.099067930132E-04 6.465241312981E-06 5.440614002228E+03
     3.102000000000E+05-5.960464477539E-08 2.416747424168E+00 4.842877388000E-08
     9.646359031973E-01 2.020000000000E+02 6.901828484517E-01-5.499157633417E-09
    -6.986005280875E-10 5.170000000000E+02 2.347000000000E+03
     3.120000000000E+00 0.000000000000E+00-3.958120942116E-09-3.958120942116E-09
     3.110020000000E+05
E18 2025 01 01 14 10 00 9.496600250714E-04 4.281730525690E-11 0.000000000000E+00
     9.000000000000E+00 3.250000000000E+01 6.503485181976E-09-8.465251581307E-01
     7.860362529755E-07 1.621144241653E-01 6.573274731636E-06 5.289318830490E+03
     3.102000000000E+05 5.252659320831E-07-2.841510404931E+00-2.382323145866E-06
     8.635067155836E-01 2.008437500000E+02 2.772863111576E+00-9.611471784951E-09
     8.261058391955E-10 5.170000000000E+02 2.347000000000E+03
     3.120000000000E+00 1.300000000000E+02-3.259629011154E-09-3.259629011154E-09
     3.110750000000E+05
S23 2025 01 01 14 25 04 0.000000000000E+00 0.000000000000E+00 3.111040000000E+05
     3.866796400000E+04 0.000000000000E+00 0.000000000000E+00 6.300000000000E+01
     1.681330800000E+04 0.000000000000E+00 0.000000000000E+00 3.276700000000E+04
     0.000000000000E+00 0.000000000000E+00 0.000000000000E+00 1.430000000000E+02
S36 2025 01 01 14 25 04 0.000000000000E+00 0.000000000000E+00 3.111170000000E+05
     4.200368800000E+04 0.000000000000E+00 0.000000000000E+00 6.300000000000E+01
     3.674846960000E+03 0.000000000000E+00 0.000000000000E+00 3.276700000000E+04
     0.000000000000E+00 0.000000000000E+00 0.000000000000E+00 2.360000000000E+02
S21 2025 01 01 14 25 20 0.000000000000E+00 0.000000000000E+00 3.111240000000E+05
     4.200468400000E+04 0.000000000000E+00 0.000000000000E+00 6.300000000000E+01
    -3.674932960000E+03 0.000000000000E+00 0.000000000000E+00 3.276700000000E+04
     0.000000000000E+00 0.000000000000E+00 0.000000000000E+00 1.650000000000E+02
E18 2025 01 01 14 10 00 9.496598504484E-04 4.281730525690E-11 0.000000000000E+00
     9.000000000000E+00 3.250000000000E+01 6.503485181976E-09-8.465251581307E-01
     7.860362529755E-07 1.621144241653E-01 6.573274731636E-06 5.289318830490E+03
     3.102000000000E+05 5.252659320831E-07-2.841510404931E+00-2.382323145866E-06
     8.635067155836E-01 2.008437500000E+02 2.772863111576E+00-9.611471784951E-09
     8.261058391955E-10 2.580000000000E+02 2.347000000000E+03
     3.120000000000E+00 1.600000000000E+01-3.259629011154E-09 0.000000000000E+00
     3.111400000000E+05
C05 2025 01 01 14 00 00 1.735710538924E-04 2.866862303108E-11 0.000000000000E+00
     1.000000000000E+00-7.489062500000E+01 1.372557172516E-09 1.174649809885E+00
    -2.587214112282E-06 1.275430782698E-03 2.751406282187E-05 6.493454694748E+03
     3.096000000000E+05-2.458691596985E-07 2.713420702121E-01-4.656612873077E-10
     1.120314748806E-01-8.424375000000E+02-2.978929662983E+00-2.807259790781E-10
     8.636074012861E-10 0.000000000000E+00 9.910000000000E+02 0.000000000000E+00
     2.000000000000E+00 0.000000000000E+00 2.000000000000E-10-9.500000000000E-09
     3.111276000000E+05 0.000000000000E+00
E19 2025 01 01 14 10 00 1.170643605292E-03 5.604761099676E-11 0.000000000000E+00
     9.000000000000E+00-1.781562500000E+02 2.608680090568E-09-2.573770663696E+00
    -8.247792720795E-06 1.478173071519E-04 1.178681850433E-05 5.440635393143E+03
     3.102000000000E+05 1.117587089539E-08 3.191183282621E-01 1.676380634308E-08
     9.691162873090E-01 8.909375000000E+01-2.121283095864E+00-5.180930092248E-09
     3.360854278785E-10 2.580000000000E+02 2.347000000000E+03
     3.120000000000E+00 0.000000000000E+00-6.752088665962E-09 0.000000000000E+00
     3.111700000000E+05
E15 2025 01 01 14 10 00-1.484781969339E-04-2.302158463863E-12 0.000000000000E+00
     9.000000000000E+00 1.812500000000E+02 2.558678007781E-09 8.720876181098E-01
     8.475035429001E-06 4.395411815494E-04 2.440065145493E-07 5.440608926773E+03
     3.102000000000E+05 1.024454832077E-07-1.775972999764E+00-2.048909664154E-08
     9.996375729059E-01 3.539375000000E+02-1.180279006010E+00-5.675593554110E-09
     3.550147877909E-10 2.580000000000E+02 2.347000000000E+03
     3.120000000000E+00 0.000000000000E+00 2.561137080193E-09 0.000000000000E+00
     3.111800000000E+05
S23 2025 01 01 14 26 56 0.000000000000E+00 0.000000000000E+00 3.112260000000E+05
     3.866796400000E+04 0.000000000000E+00 0.000000000000E+00 6.300000000000E+01
     1.681330800000E+04 0.000000000000E+00 0.000000000000E+00 3.276700000000E+04
     0.000000000000E+00 0.000000000000E+00 0.000000000000E+00 1.440000000000E+02
E02 2025 01 01 14 10 00 1.867535756901E-04 2.870592652471E-12 0.000000000000E+00
     9.000000000000E+00-2.434375000000E+01 3.398712998610E-09 1.872611008394E+00
    -1.311302185059E-06 5.099067930132E-04 6.465241312981E-06 5.440614002228E+03
     3.102000000000E+05-5.960464477539E-08 2.416747424168E+00 4.842877388000E-08
     9.646359031973E-01 2.020000000000E+02 6.901828484517E-01-5.499157633417E-09
    -6.986005280875E-10 2.580000000000E+02 2.347000000000E+03
     3.120000000000E+00 0.000000000000E+00-3.958120942116E-09 0.000000000000E+00
     3.112600000000E+05
S36 2025 01 01 14 27 28 0.000000000000E+00 0.000000000000E+00 3.112610000000E+05
     4.200368800000E+04 0.000000000000E+00 0.000000000000E+00 6.300000000000E+01
     3.674846960000E+03 0.000000000000E+00 0.000000000000E+00 3.276700000000E+04
     0.000000000000E+00 0.000000000000E+00 0.000000000000E+00 2.370000000000E+02
S21 2025 01 01 14 28 00 0.000000000000E+00 0.000000000000E+00 3.112900000000E+05
     4.200468400000E+04 0.000000000000E+00 0.000000000000E+00 6.300000000000E+01
    -3.674932960000E+03 0.000000000000E+00 0.000000000000E+00 3.276700000000E+04
     0.000000000000E+00 0.000000000000E+00 0.000000000000E+00 1.660000000000E+02
S23 2025 01 01 14 29 04 0.000000000000E+00 0.000000000000E+00 3.113480000000E+05
     3.866796400000E+04 0.000000000000E+00 0.000000000000E+00 6.300000000000E+01
     1.681330800000E+04 0.000000000000E+00 0.000000000000E+00 3.276700000000E+04
     0.000000000000E+00 0.000000000000E+00 0.000000000000E+00 1.450000000000E+02
